ONEWEB-0711             
1 55174U 23004AL  23025.25001157 -.00668586  00000+0 -85379-1 0  9997
2 55174  86.5653 279.1506 0009746 158.7856 336.4586 14.83946904  2389
ONEWEB-0713             
1 55175U 23004AM  23025.33334491 -.00696864  00000+0 -89983-1 0  9992
2 55175  86.5686 279.1214 0009849 153.8814  55.0532 14.83591038  2408
ONEWEB-0715             
1 55176U 23004AN  23024.91667824 -.00676767  00000+0 -84592-1 0  9996
2 55176  86.5629 279.3011 0009869 159.8011   2.0557 14.84856143  2333
ONEWEB-0716             
1 55177U 23004AP  23025.20569380  .00004368  00000+0  43374-3 0  9993
2 55177  86.5117 279.1420 0013545 161.4010 198.7715 14.91440697  2387
ONEWEB-0717             
1 55178U 23004AQ  23024.80938693  .00007211  00000+0  73032-3 0  9990
2 55178  86.5072 279.3157 0009471 159.5413 200.6196 14.90778905  2320
ONEWEB-0719             
1 55179U 23004AR  23024.47051128  .00005522  00000+0  55333-3 0  9990
2 55179  86.5104 279.4653 0012287 161.2768 198.8913 14.91136667  2274
SJ-23 AKM               
1 55180U 23002C   23024.29778863 -.00000307  00000+0  00000+0 0  9996
2 55180   0.5186  95.1682 0001715 278.0857 346.7198  0.99360792    84
1998-067UY              
1 55181U 98067UY  23024.11882165  .00095285  00000+0  14691-2 0  9994
2 55181  51.6418 321.9219 0003759 235.0060 125.0577 15.53369411  2764
HSKSAT                  
1 55182U 98067UZ  23025.02144208  .00059733  00000+0  94482-3 0  9990
2 55182  51.6415 317.4507 0003314 229.7793 130.2908 15.52868679  2914
1998-067VA              
1 55183U 98067VA  23025.02316857  .00052947  00000+0  84842-3 0  9991
2 55183  51.6418 317.4633 0004162 337.4835  22.5972 15.52556846  2918
APSTAR 6E               
1 55239U 23005A   23023.24244036 -.00000004  00000+0  00000+0 0  9992
2 55239  33.3212  13.0973 3305985 140.1267 317.2134  8.23856059  1308
CZ-2D R/B               
1 55240U 23005B   23024.12917427  .00002253 -71190-5  00000+0 0  9995
2 55240  28.5059 301.7733 0167145 241.8059 265.6970 15.88117867  1800
2023-006A               
1 55242U 23006A   23025.20670537  .00022431  00000+0  11146-2 0  9997
2 55242  43.2022 140.3153 0009302 352.1668  81.5004 15.17230942  1817
2023-006B               
1 55243U 23006B   23025.20779834  .00011181  00000+0  56645-3 0  9992
2 55243  43.2028 140.3214 0009207 351.4370  82.4563 15.16981096  1810
2023-006C               
1 55244U 23006C   23025.06298611  .00009859  00000+0  51098-3 0  9992
2 55244  43.2012 141.1983 0006166 335.3099 359.2172 15.16298836  1731
2023-006D               
1 55245U 23006D   23025.41414626  .00034737  00000+0  17272-2 0  9996
2 55245  43.2005 139.2050 0007404 345.1637 126.2742 15.17028975  1809
2023-007A               
1 55248U 23007A   23025.17298694  .00019373  00000+0  79137-3 0  9996
2 55248  97.3772  99.4718 0008724 201.7028 242.3282 15.24390523  1536
2023-007B               
1 55249U 23007B   23025.23656176  .00020055  00000+0  81001-3 0  9999
2 55249  97.3774  99.5411 0008377 212.1565 233.4958 15.24765882  1531
2023-007C               
1 55250U 23007C   23025.16448483  .00030300  00000+0  12077-2 0  9993
2 55250  97.3763  99.4717 0007378 217.3001 202.9243 15.25133247  1523
2023-007D               
1 55251U 23007D   23025.16339795  .00029487  00000+0  11733-2 0  9991
2 55251  97.3817  99.4788 0008010 220.5044 196.1088 15.25190065  1521
2023-007E               
1 55252U 23007E   23025.16339170  .00020650  00000+0  82594-3 0  9996
2 55252  97.3736  99.4670 0007632 221.5144 195.1908 15.25093207  1523
2023-007F               
1 55253U 23007F   23025.23343475  .00019677  00000+0  78429-3 0  9997
2 55253  97.3761  99.5423 0007899 225.1763 220.2387 15.25218203  1538
2023-007G               
1 55254U 23007G   23025.16708910  .00021802  00000+0  86622-3 0  9996
2 55254  97.3798  99.4825 0007644 228.6008 215.2679 15.25306326  1523
2023-007H               
1 55255U 23007H   23025.16439407  .00037744  00000+0  14688-2 0  9993
2 55255  97.3729  99.4773 0008408 239.3142 204.5529 15.25876775  1522
2023-007J               
1 55256U 23007J   23025.16468346  .00027961  00000+0  10950-2 0  9996
2 55256  97.3765  99.4816 0007884 239.9146 203.9025 15.25734413  1524
2023-007K               
1 55257U 23007K   23025.15399112  .00014309  00000+0  56554-3 0  9993
2 55257  97.3761  99.4693 0007526 241.8874 142.3189 15.25572644  1520
2023-007L               
1 55258U 23007L   23025.15973770  .00018179  00000+0  71398-3 0  9994
2 55258  97.3771  99.4785 0007432 245.0910 174.9451 15.25731621  1522
2023-007M               
1 55259U 23007M   23025.16214131  .00016192  00000+0  63118-3 0  9999
2 55259  97.3731  99.4787 0007702 253.9986 189.7659 15.26004267  1526
2023-007N               
1 55260U 23007N   23025.15271346  .00023461  00000+0  89213-3 0  9992
2 55260  97.3726  99.4801 0007978 274.9457 141.3445 15.26750738  1528
2023-007P               
1 55261U 23007P   23025.15738163  .00019573  00000+0  74343-3 0  9995
2 55261  97.3731  99.4867 0008627 276.7750 169.1468 15.26821015  1525
USA 342                 
1 55263U 23008A   23022.59617834  .00000027  00000+0  00000+0 0  9993
2 55263   0.0502  21.7947 0001995 245.7295 224.2556  1.02189833    65
NAVSTAR 82 (USA 343)    
1 55268U 23009A   23019.56958773  .00000203  00000+0  00000+0 0  9998
2 55268  55.0137 201.7698 5934866 270.2550  26.1276  4.03893074    40
STARLINK A              
1 55269U 23010A   23024.66667824 -.00891129  25026-3 -21951-2 0  9999
2 55269  69.9996  55.2051 0038787 163.8544 351.9259 15.94400723  1302
STARLINK B              
1 55270U 23010B   23024.66667824 -.00891248  25024-3 -22009-2 0  9996
2 55270  69.9996  55.2049 0038555 163.8712 351.5584 15.94371539  1300
STARLINK C              
1 55271U 23010C   23024.66667824 -.00890998  25016-3 -21938-2 0  9999
2 55271  69.9996  55.2051 0039034 163.7016 351.9477 15.94391203  1308
STARLINK D              
1 55272U 23010D   23024.66667824 -.00891043  25015-3 -21970-2 0  9997
2 55272  69.9996  55.2058 0038887 163.7793 350.8274 15.94376072  1303
STARLINK E              
1 55273U 23010E   23024.66667824 -.00891318  25040-3 -21955-2 0  9994
2 55273  69.9996  55.2044 0038569 163.8582 352.3316 15.94416733  1306
STARLINK F              
1 55274U 23010F   23024.66667824 -.00891229  25037-3 -21910-2 0  9993
2 55274  69.9996  55.2037 0038943 163.7130 352.6299 15.94425701  1301
STARLINK G              
1 55275U 23010G   23024.66667824 -.00891428  25050-3 -21952-2 0  9996
2 55275  69.9996  55.2040 0038372 163.8213 352.6455 15.94435378  1300
STARLINK H              
1 55276U 23010H   23024.66667824 -.00891483  25060-3 -21930-2 0  9995
2 55276  69.9996  55.2029 0038256 163.9322 352.9670 15.94462925  1301
STARLINK J              
1 55277U 23010J   23024.66667824 -.00891301  25046-3 -21934-2 0  9993
2 55277  69.9996  55.2037 0038414 163.8001 352.7980 15.94444744  1301
STARLINK K              
1 55278U 23010K   23024.66667824 -.00891286  25057-3 -21846-2 0  9990
2 55278  69.9996  55.2024 0038789 163.6301 353.6654 15.94491049  1302
STARLINK L              
1 55279U 23010L   23024.66667824 -.00891505  25059-3 -21929-2 0  9999
2 55279  69.9996  55.2035 0038405 163.7933 352.9639 15.94453735  1307
STARLINK M              
1 55280U 23010M   23024.66667824 -.00891406  25066-3 -21848-2 0  9999
2 55280  69.9996  55.2021 0038692 163.8726 353.6420 15.94498735  1308
STARLINK N              
1 55281U 23010N   23024.66667824 -.00891280  25052-3 -21913-2 0  9998
2 55281  69.9996  55.2030 0038279 163.8368 353.2408 15.94471253  1300
STARLINK P              
1 55282U 23010P   23024.66667824 -.00891195  25062-3 -21801-2 0  9991
2 55282  69.9996  55.2015 0038797 163.7072 354.2387 15.94526092  1309
STARLINK Q              
1 55283U 23010Q   23024.66667824 -.00891358  25058-3 -21876-2 0  9990
2 55283  69.9996  55.2027 0038607 163.4988 353.7227 15.94480486  1309
STARLINK R              
1 55284U 23010R   23024.66667824 -.00891356  25074-3 -21811-2 0  9996
2 55284  69.9996  55.2010 0038496 163.6369 354.6983 15.94542405  1302
STARLINK S              
1 55285U 23010S   23024.66667824 -.00894265  25716-3 -19388-2 0  9998
2 55285  69.9995  55.1711 0043044 162.0434  21.1562 15.96365186  1300
STARLINK T              
1 55286U 23010T   23024.66667824 -.00891093  25059-3 -21788-2 0  9992
2 55286  69.9996  55.2012 0038787 163.8567 354.2145 15.94535551  1301
STARLINK U              
1 55287U 23010U   23024.66667824 -.00890987  25048-3 -21755-2 0  9996
2 55287  69.9996  55.2019 0039407 163.4607 354.3600 15.94516472  1308
STARLINK V              
1 55288U 23010V   23024.66667824 -.00891561  25102-3 -21745-2 0  9996
2 55288  69.9996  55.1998 0038408 163.6963 355.5721 15.94607928  1305
STARLINK W              
1 55289U 23010W   23024.66667824 -.00891476  25086-3 -21810-2 0  9996
2 55289  69.9996  55.2010 0038256 163.7950 354.7342 15.94562620  1309
STARLINK X              
1 55290U 23010X   23024.66667824 -.00891629  25099-3 -21783-2 0  9991
2 55290  69.9996  55.2003 0038357 163.5796 355.2277 15.94581188  1304
STARLINK Y              
1 55291U 23010Y   23024.66667824 -.00891325  25081-3 -21762-2 0  9993
2 55291  69.9996  55.2006 0038643 163.5952 355.0502 15.94572250  1309
STARLINK Z              
1 55292U 23010Z   23024.66667824 -.00891771  25116-3 -21749-2 0  9993
2 55292  69.9996  55.1994 0038291 163.6867 355.7269 15.94617128  1301
STARLINK AA             
1 55293U 23010AA  23024.66667824 -.00891503  25097-3 -21738-2 0  9993
2 55293  69.9996  55.2002 0038595 163.6083 355.4887 15.94599351  1300
STARLINK AB             
1 55294U 23010AB  23024.66667824 -.00891378  25067-3 -21830-2 0  9994
2 55294  69.9996  55.2017 0038717 163.4914 353.9949 15.94511383  1305
STARLINK AC             
1 55295U 23010AC  23024.66667824 -.00891333  25033-3 -21990-2 0  9996
2 55295  69.9996  55.2047 0038580 163.4448 351.8114 15.94387255  1309
